start=new Date('2021-09-11T00:00:00.000Z').valueOf();
sats=[{"PERIOD":"95.592","SITE":"AFETR","MEAN_MOTION":"15.06402379","FILE":"3112758","SEMIMAJOR_AXIS":"6925.341","MEAN_MOTION_DOT":"0.00001524","MEAN_MOTION_DDOT":"0.0000000000000","RA_OF_ASC_NODE":"18.0295","DECAY_DATE":null,"COUNTRY_CODE":"US","OBJECT_NAME":"STARLINK-2209","CLASSIFICATION_TYPE":"U","GP_ID":"184473751","ELEMENT_SET_NO":"999","EPHEMERIS_TYPE":"0","OBJECT_TYPE":"PAYLOAD","TLE_LINE1":"1 47776U 21017BG  21253.76116657  .00001524  00000-0  12120-3 0  9995","OBJECT_ID":"2021-017BG","LAUNCH_DATE":"2021-03-04","RCS_SIZE":"LARGE","ECCENTRICITY":"0.00015090","ARG_OF_PERICENTER":"92.6358","INCLINATION":"53.0574","BSTAR":"0.00012120000000","APOAPSIS":"548.251","MEAN_ELEMENT_THEORY":"SGP4","REV_AT_EPOCH":"3042","EPOCH":"2021-09-10T18:16:04.791648","TIME_SYSTEM":"UTC","REF_FRAME":"TEME","MEAN_ANOMALY":"267.4804","CENTER_NAME":"EARTH","NORAD_CAT_ID":"47776","TLE_LINE2":"2 47776  53.0574  18.0295 0001509  92.6358 267.4804 15.06402379 30427","PERIAPSIS":"546.161"},{"MEAN_MOTION":"15.06404314","FILE":"3112758","SITE":"AFETR","PERIOD":"95.592","SEMIMAJOR_AXIS":"6925.335","DECAY_DATE":null,"RA_OF_ASC_NODE":"17.7192","MEAN_MOTION_DDOT":"0.0000000000000","MEAN_MOTION_DOT":"-0.00000371","EPHEMERIS_TYPE":"0","OBJECT_TYPE":"PAYLOAD","ELEMENT_SET_NO":"999","GP_ID":"184474001","CLASSIFICATION_TYPE":"U","OBJECT_NAME":"STARLINK-2210","COUNTRY_CODE":"US","OBJECT_ID":"2021-017BH","LAUNCH_DATE":"2021-03-04","TLE_LINE1":"1 47777U 21017BH  21253.83119610 -.00000371  00000-0 -60046-5 0  9999","BSTAR":"-0.00000600460000","ARG_OF_PERICENTER":"105.2375","INCLINATION":"53.0577","ECCENTRICITY":"0.00014900","RCS_SIZE":"LARGE","REV_AT_EPOCH":"3043","MEAN_ELEMENT_THEORY":"SGP4","APOAPSIS":"548.232","TLE_LINE2":"2 47777  53.0577  17.7192 0001490 105.2375 254.8779 15.06404314 30435","NORAD_CAT_ID":"47777","PERIAPSIS":"546.168","CENTER_NAME":"EARTH","MEAN_ANOMALY":"254.8779","REF_FRAME":"TEME","TIME_SYSTEM":"UTC","EPOCH":"2021-09-10T19:56:55.343040"},{"EPOCH":"2021-09-10T15:58:04.999296","TIME_SYSTEM":"UTC","REF_FRAME":"TEME","MEAN_ANOMALY":"244.4550","CENTER_NAME":"EARTH","NORAD_CAT_ID":"47778","TLE_LINE2":"2 47778  53.0575  18.6292 0001381 115.6581 244.4550 15.06406971 30408","PERIAPSIS":"546.236","MEAN_ELEMENT_THEORY":"SGP4","APOAPSIS":"548.149","REV_AT_EPOCH":"3040","RCS_SIZE":"LARGE","ECCENTRICITY":"0.00013810","INCLINATION":"53.0575","ARG_OF_PERICENTER":"115.6581","BSTAR":"-0.00010270000000","TLE_LINE1":"1 47778U 21017BJ  21253.66533564 -.00001811  00000-0 -10270-3 0  9991","OBJECT_ID":"2021-017BJ","LAUNCH_DATE":"2021-03-04","COUNTRY_CODE":"US","OBJECT_NAME":"STARLINK-2211","GP_ID":"184474753","CLASSIFICATION_TYPE":"U","ELEMENT_SET_NO":"999","OBJECT_TYPE":"PAYLOAD","EPHEMERIS_TYPE":"0","MEAN_MOTION_DOT":"-0.00001811","MEAN_MOTION_DDOT":"0.0000000000000","RA_OF_ASC_NODE":"18.6292","DECAY_DATE":null,"SEMIMAJOR_AXIS":"6925.327","PERIOD":"95.592","SITE":"AFETR","MEAN_MOTION":"15.06406971","FILE":"3112758"},{"SEMIMAJOR_AXIS":"6925.346","FILE":"3112758","MEAN_MOTION":"15.06400896","PERIOD":"95.592","SITE":"AFETR","GP_ID":"184475503","CLASSIFICATION_TYPE":"U","ELEMENT_SET_NO":"999","COUNTRY_CODE":"US","OBJECT_NAME":"STARLINK-2212","EPHEMERIS_TYPE":"0","OBJECT_TYPE":"PAYLOAD","MEAN_MOTION_DDOT":"0.0000000000000","MEAN_MOTION_DOT":"-0.00000461","DECAY_DATE":null,"RA_OF_ASC_NODE":"18.6851","RCS_SIZE":"LARGE","BSTAR":"-0.00001208200000","ECCENTRICITY":"0.00014430","INCLINATION":"53.0565","ARG_OF_PERICENTER":"89.3003","TLE_LINE1":"1 47779U 21017BK  21253.61372937 -.00000461  00000-0 -12082-4 0  9996","LAUNCH_DATE":"2021-03-04","OBJECT_ID":"2021-017BK","TIME_SYSTEM":"UTC","REF_FRAME":"TEME","EPOCH":"2021-09-10T14:43:46.217568","CENTER_NAME":"EARTH","NORAD_CAT_ID":"47779","TLE_LINE2":"2 47779  53.0565  18.6851 0001443  89.3003 270.8151 15.06400896 30404","PERIAPSIS":"546.211","MEAN_ANOMALY":"270.8151","APOAPSIS":"548.210","MEAN_ELEMENT_THEORY":"SGP4","REV_AT_EPOCH":"3040"},{"EPOCH":"2021-09-10T19:34:19.995744","TIME_SYSTEM":"UTC","REF_FRAME":"TEME","MEAN_ANOMALY":"250.2982","CENTER_NAME":"EARTH","TLE_LINE2":"2 47780  53.0568  17.7837 0001423 109.8161 250.2982 15.06398131 30462","PERIAPSIS":"546.234","NORAD_CAT_ID":"47780","MEAN_ELEMENT_THEORY":"SGP4","APOAPSIS":"548.205","REV_AT_EPOCH":"3046","RCS_SIZE":"LARGE","ECCENTRICITY":"0.00014230","INCLINATION":"53.0568","ARG_OF_PERICENTER":"109.8161","BSTAR":"0.00007989200000","TLE_LINE1":"1 47780U 21017BL  21253.81550921  .00000909  00000-0  79892-4 0  9998","LAUNCH_DATE":"2021-03-04","OBJECT_ID":"2021-017BL","COUNTRY_CODE":"US","OBJECT_NAME":"STARLINK-2213","CLASSIFICATION_TYPE":"U","GP_ID":"184474251","ELEMENT_SET_NO":"999","OBJECT_TYPE":"PAYLOAD","EPHEMERIS_TYPE":"0","MEAN_MOTION_DOT":"0.00000909","MEAN_MOTION_DDOT":"0.0000000000000","RA_OF_ASC_NODE":"17.7837","DECAY_DATE":null,"SEMIMAJOR_AXIS":"6925.354","PERIOD":"95.592","SITE":"AFETR","MEAN_MOTION":"15.06398131","FILE":"3112758"},{"REV_AT_EPOCH":"3042","APOAPSIS":"547.949","MEAN_ELEMENT_THEORY":"SGP4","CENTER_NAME":"EARTH","TLE_LINE2":"2 47781  53.0571  17.5990 0001064 111.1819 248.9283 15.06400588 30426","NORAD_CAT_ID":"47781","PERIAPSIS":"546.475","MEAN_ANOMALY":"248.9283","TIME_SYSTEM":"UTC","REF_FRAME":"TEME","EPOCH":"2021-09-10T20:34:04.756800","OBJECT_ID":"2021-017BM","LAUNCH_DATE":"2021-03-04","TLE_LINE1":"1 47781U 21017BM  21253.85699950  .00001461  00000-0  11695-3 0  9999","BSTAR":"0.00011695000000","ECCENTRICITY":"0.00010640","ARG_OF_PERICENTER":"111.1819","INCLINATION":"53.0571","RCS_SIZE":"LARGE","DECAY_DATE":null,"RA_OF_ASC_NODE":"17.5990","MEAN_MOTION_DDOT":"0.0000000000000","MEAN_MOTION_DOT":"0.00001461","OBJECT_TYPE":"PAYLOAD","EPHEMERIS_TYPE":"0","CLASSIFICATION_TYPE":"U","GP_ID":"184474501","ELEMENT_SET_NO":"999","COUNTRY_CODE":"US","OBJECT_NAME":"STARLINK-2223","MEAN_MOTION":"15.06400588","FILE":"3112758","PERIOD":"95.592","SITE":"AFETR","SEMIMAJOR_AXIS":"6925.347"},{"TLE_LINE1":"1 47787U 21018A   21253.87544013  .00002713  00000-0  20097-3 0  9994","OBJECT_ID":"2021-018A","LAUNCH_DATE":"2021-03-11","RCS_SIZE":"LARGE","ECCENTRICITY":"0.00019760","ARG_OF_PERICENTER":"82.2714","INCLINATION":"53.0559","BSTAR":"0.00020097000000","MEAN_ELEMENT_THEORY":"SGP4","APOAPSIS":"548.577","REV_AT_EPOCH":"2928","EPOCH":"2021-09-10T21:00:38.027232","TIME_SYSTEM":"UTC","REF_FRAME":"TEME","MEAN_ANOMALY":"277.8499","CENTER_NAME":"EARTH","TLE_LINE2":"2 47787  53.0559  57.5189 0001976  82.2714 277.8499 15.06401622 29288","PERIAPSIS":"545.840","NORAD_CAT_ID":"47787","PERIOD":"95.592","SITE":"AFETR","FILE":"3112758","MEAN_MOTION":"15.06401622","SEMIMAJOR_AXIS":"6925.344","MEAN_MOTION_DOT":"0.00002713","MEAN_MOTION_DDOT":"0.0000000000000","RA_OF_ASC_NODE":"57.5189","DECAY_DATE":null,"COUNTRY_CODE":"US","OBJECT_NAME":"STARLINK-2257","CLASSIFICATION_TYPE":"U","GP_ID":"184475253","ELEMENT_SET_NO":"999","OBJECT_TYPE":"PAYLOAD","EPHEMERIS_TYPE":"0"},{"EPOCH":"2021-09-10T19:32:52.158912","REF_FRAME":"TEME","TIME_SYSTEM":"UTC","MEAN_ANOMALY":"288.9486","TLE_LINE2":"2 47788  53.0555  36.7114 0001442  71.1668 288.9486 15.27713986 29589","NORAD_CAT_ID":"47788","PERIAPSIS":"481.661","CENTER_NAME":"EARTH","APOAPSIS":"483.639","MEAN_ELEMENT_THEORY":"SGP4","REV_AT_EPOCH":"2958","RCS_SIZE":"LARGE","INCLINATION":"53.0555","ARG_OF_PERICENTER":"71.1668","ECCENTRICITY":"0.00014420","BSTAR":"-0.00000153410000","TLE_LINE1":"1 47788U 21018B   21253.81449258 -.00000392  00000-0 -15341-5 0  9995","OBJECT_ID":"2021-018B","LAUNCH_DATE":"2021-03-11","OBJECT_NAME":"STARLINK-2314","COUNTRY_CODE":"US","ELEMENT_SET_NO":"999","GP_ID":"184475004","CLASSIFICATION_TYPE":"U","EPHEMERIS_TYPE":"0","OBJECT_TYPE":"PAYLOAD","MEAN_MOTION_DOT":"-0.00000392","MEAN_MOTION_DDOT":"0.0000000000000","RA_OF_ASC_NODE":"36.7114","DECAY_DATE":null,"SEMIMAJOR_AXIS":"6860.785","SITE":"AFETR","PERIOD":"94.258","FILE":"3112758","MEAN_MOTION":"15.27713986"},{"SEMIMAJOR_AXIS":"6925.330","SITE":"AFETR","PERIOD":"95.592","FILE":"3112758","MEAN_MOTION":"15.06405911","OBJECT_NAME":"STARLINK-2315","COUNTRY_CODE":"US","ELEMENT_SET_NO":"999","CLASSIFICATION_TYPE":"U","GP_ID":"184473752","OBJECT_TYPE":"PAYLOAD","EPHEMERIS_TYPE":"0","MEAN_MOTION_DOT":"0.00001872","MEAN_MOTION_DDOT":"0.0000000000000","RA_OF_ASC_NODE":"37.5247","DECAY_DATE":null,"RCS_SIZE":"LARGE","ARG_OF_PERICENTER":"109.3563","INCLINATION":"53.0582","ECCENTRICITY":"0.00016280","BSTAR":"0.00014455000000","TLE_LINE1":"1 47789U 21018C   21253.86990174  .00001872  00000-0  14455-3 0  9994","LAUNCH_DATE":"2021-03-11","OBJECT_ID":"2021-018C","EPOCH":"2021-09-10T20:52:39.510336","REF_FRAME":"TEME","TIME_SYSTEM":"UTC","MEAN_ANOMALY":"250.7602","NORAD_CAT_ID":"47789","TLE_LINE2":"2 47789  53.0582  37.5247 0001628 109.3563 250.7602 15.06405911 29579","PERIAPSIS":"546.068","CENTER_NAME":"EARTH","MEAN_ELEMENT_THEORY":"SGP4","APOAPSIS":"548.323","REV_AT_EPOCH":"2957"},{"SEMIMAJOR_AXIS":"6852.025","FILE":"3112758","MEAN_MOTION":"15.30644695","PERIOD":"94.078","SITE":"AFETR","OBJECT_TYPE":"PAYLOAD","EPHEMERIS_TYPE":"0","GP_ID":"184474002","CLASSIFICATION_TYPE":"U","ELEMENT_SET_NO":"999","COUNTRY_CODE":"US","OBJECT_NAME":"STARLINK-2319","DECAY_DATE":null,"RA_OF_ASC_NODE":"34.1681","MEAN_MOTION_DDOT":"0.0000000000000","MEAN_MOTION_DOT":"0.00000052","BSTAR":"0.00001377300000","ECCENTRICITY":"0.00015420","INCLINATION":"53.0564","ARG_OF_PERICENTER":"61.6853","RCS_SIZE":"LARGE","OBJECT_ID":"2021-018D","LAUNCH_DATE":"2021-03-11","TLE_LINE1":"1 47790U 21018D   21253.86193708  .00000052  00000-0  13773-4 0  9996","CENTER_NAME":"EARTH","NORAD_CAT_ID":"47790","TLE_LINE2":"2 47790  53.0564  34.1681 0001542  61.6853 298.4302 15.30644695 29626","PERIAPSIS":"472.833","MEAN_ANOMALY":"298.4302","TIME_SYSTEM":"UTC","REF_FRAME":"TEME","EPOCH":"2021-09-10T20:41:11.363712","REV_AT_EPOCH":"2962","APOAPSIS":"474.946","MEAN_ELEMENT_THEORY":"SGP4"}];
